{
  "type": "FeatureCollection",
  "features": [
    {
      "type": "Feature",
      "properties": {
        "norad_id": 66397,
        "name": "STARLINK-35510",
        "group": "last-30-days",
        "lat": 34.55754593289346,
        "lon": -42.065300738833855,
        "alt_km": 443.0996467156374,
        "timestamp": "2025-12-07T22:37:41.855581+00:00",
        "meta_object_name": "STARLINK-35510",
        "meta_object_id": "2025-257T",
        "meta_epoch": "2025-12-07T06:00:04.999968",
        "meta_mean_motion": 15.39749152,
        "meta_eccentricity": 9.319e-05,
        "meta_inclination": 53.1596,
        "meta_ra_of_asc_node": 290.1099,
        "meta_arg_of_pericenter": 92.2243,
        "meta_mean_anomaly": 71.0782,
        "meta_ephemeris_type": 0,
        "meta_classification_type": "U",
        "meta_norad_cat_id": 66397,
        "meta_element_set_no": 999,
        "meta_rev_at_epoch": 561,
        "meta_bstar": -0.0062709743,
        "meta_mean_motion_dot": -0.00244395,
        "meta_mean_motion_ddot": 0,
        "tle_line1": "1 66397U 25257T   25341.25005787 -.00244395  00000+0 -62710-2 0  9997",
        "tle_line2": "2 66397  53.1596 290.1099 0000931  92.2243  71.0782 15.39749152  5610"
      },
      "geometry": {
        "type": "Point",
        "coordinates": [
          -42.065300738833855,
          34.55754593289346
        ]
      }
    },
    {
      "type": "Feature",
      "properties": {
        "norad_id": 66398,
        "name": "STARLINK-35642",
        "group": "last-30-days",
        "lat": 53.12707887709534,
        "lon": 18.450350363124763,
        "alt_km": 418.28839521174723,
        "timestamp": "2025-12-07T22:37:41.855592+00:00",
        "meta_object_name": "STARLINK-35642",
        "meta_object_id": "2025-257U",
        "meta_epoch": "2025-12-06T12:07:51.672288",
        "meta_mean_motion": 15.47370943,
        "meta_eccentricity": 0.00013279,
        "meta_inclination": 53.1588,
        "meta_ra_of_asc_node": 293.6043,
        "meta_arg_of_pericenter": 337.02,
        "meta_mean_anomaly": 23.0748,
        "meta_ephemeris_type": 0,
        "meta_classification_type": "U",
        "meta_norad_cat_id": 66398,
        "meta_element_set_no": 999,
        "meta_rev_at_epoch": 541,
        "meta_bstar": -0.0016841025,
        "meta_mean_motion_dot": -0.00086994,
        "meta_mean_motion_ddot": 0,
        "tle_line1": "1 66398U 25257U   25340.50545917 -.00086994  00000+0 -16841-2 0  9992",
        "tle_line2": "2 66398  53.1588 293.6043 0001327 337.0200  23.0748 15.47370943  5416"
      },
      "geometry": {
        "type": "Point",
        "coordinates": [
          18.450350363124763,
          53.12707887709534
        ]
      }
    },
    {
      "type": "Feature",
      "properties": {
        "norad_id": 66399,
        "name": "STARLINK-35657",
        "group": "last-30-days",
        "lat": 35.879039716927466,
        "lon": -40.31962102743443,
        "alt_km": 442.3421364703363,
        "timestamp": "2025-12-07T22:37:41.855603+00:00",
        "meta_object_name": "STARLINK-35657",
        "meta_object_id": "2025-257V",
        "meta_epoch": "2025-12-07T06:00:04.999968",
        "meta_mean_motion": 15.39505365,
        "meta_eccentricity": 0.00010937,
        "meta_inclination": 53.1596,
        "meta_ra_of_asc_node": 290.1056,
        "meta_arg_of_pericenter": 121.4537,
        "meta_mean_anomaly": 43.7738,
        "meta_ephemeris_type": 0,
        "meta_classification_type": "U",
        "meta_norad_cat_id": 66399,
        "meta_element_set_no": 999,
        "meta_rev_at_epoch": 561,
        "meta_bstar": 0.0028689679,
        "meta_mean_motion_dot": 0.00115675,
        "meta_mean_motion_ddot": 0,
        "tle_line1": "1 66399U 25257V   25341.25005787  .00115675  00000+0  28690-2 0  9994",
        "tle_line2": "2 66399  53.1596 290.1056 0001093 121.4537  43.7738 15.39505365  5619"
      },
      "geometry": {
        "type": "Point",
        "coordinates": [
          -40.31962102743443,
          35.879039716927466
        ]
      }
    },
    {
      "type": "Feature",
      "properties": {
        "norad_id": 66400,
        "name": "STARLINK-35667",
        "group": "last-30-days",
        "lat": 52.6852256985385,
        "lon": 27.107832150756327,
        "alt_km": 423.70309263566287,
        "timestamp": "2025-12-07T22:37:41.855614+00:00",
        "meta_object_name": "STARLINK-35667",
        "meta_object_id": "2025-257W",
        "meta_epoch": "2025-12-07T06:41:39.031872",
        "meta_mean_motion": 15.46188684,
        "meta_eccentricity": 0.00010928,
        "meta_inclination": 53.1585,
        "meta_ra_of_asc_node": 289.8979,
        "meta_arg_of_pericenter": 90.8536,
        "meta_mean_anomaly": 269.2597,
        "meta_ephemeris_type": 0,
        "meta_classification_type": "U",
        "meta_norad_cat_id": 66400,
        "meta_element_set_no": 999,
        "meta_rev_at_epoch": 553,
        "meta_bstar": -0.01959782,
        "meta_mean_motion_dot": -0.009003,
        "meta_mean_motion_ddot": 0,
        "tle_line1": "1 66400U 25257W   25341.27892398 -.00900300  00000+0 -19598-1 0  9996",
        "tle_line2": "2 66400  53.1585 289.8979 0001092  90.8536 269.2597 15.46188684  5534"
      },
      "geometry": {
        "type": "Point",
        "coordinates": [
          27.107832150756327,
          52.6852256985385
        ]
      }
    },
    {
      "type": "Feature",
      "properties": {
        "norad_id": 66401,
        "name": "STARLINK-35668",
        "group": "last-30-days",
        "lat": 52.05982655824558,
        "lon": 32.64264738202215,
        "alt_km": 423.30255235610366,
        "timestamp": "2025-12-07T22:37:41.855625+00:00",
        "meta_object_name": "STARLINK-35668",
        "meta_object_id": "2025-257X",
        "meta_epoch": "2025-12-07T06:41:10.290912",
        "meta_mean_motion": 15.46419698,
        "meta_eccentricity": 0.0003137,
        "meta_inclination": 53.159,
        "meta_ra_of_asc_node": 289.8963,
        "meta_arg_of_pericenter": 302.2688,
        "meta_mean_anomaly": 57.8016,
        "meta_ephemeris_type": 0,
        "meta_classification_type": "U",
        "meta_norad_cat_id": 66401,
        "meta_element_set_no": 999,
        "meta_rev_at_epoch": 553,
        "meta_bstar": -0.0059565103,
        "meta_mean_motion_dot": -0.00289191,
        "meta_mean_motion_ddot": 0,
        "tle_line1": "1 66401U 25257X   25341.27859133 -.00289191  00000+0 -59565-2 0  9994",
        "tle_line2": "2 66401  53.1590 289.8963 0003137 302.2688  57.8016 15.46419698  5533"
      },
      "geometry": {
        "type": "Point",
        "coordinates": [
          32.64264738202215,
          52.05982655824558
        ]
      }
    },
    {
      "type": "Feature",
      "properties": {
        "norad_id": 66402,
        "name": "STARLINK-35644",
        "group": "last-30-days",
        "lat": 53.13860469016611,
        "lon": 16.242136293257076,
        "alt_km": 421.1053145137621,
        "timestamp": "2025-12-07T22:37:41.855636+00:00",
        "meta_object_name": "STARLINK-35644",
        "meta_object_id": "2025-257Y",
        "meta_epoch": "2025-12-06T12:07:02.432928",
        "meta_mean_motion": 15.46927873,
        "meta_eccentricity": 0.00011866,
        "meta_inclination": 53.1593,
        "meta_ra_of_asc_node": 293.6012,
        "meta_arg_of_pericenter": 42.7895,
        "meta_mean_anomaly": 317.3205,
        "meta_ephemeris_type": 0,
        "meta_classification_type": "U",
        "meta_norad_cat_id": 66402,
        "meta_element_set_no": 999,
        "meta_rev_at_epoch": 541,
        "meta_bstar": -0.0075990162,
        "meta_mean_motion_dot": -0.00371344,
        "meta_mean_motion_ddot": 0,
        "tle_line1": "1 66402U 25257Y   25340.50488927 -.00371344  00000+0 -75990-2 0  9991",
        "tle_line2": "2 66402  53.1593 293.6012 0001186  42.7895 317.3205 15.46927873  5413"
      },
      "geometry": {
        "type": "Point",
        "coordinates": [
          16.242136293257076,
          53.13860469016611
        ]
      }
    },
    {
      "type": "Feature",
      "properties": {
        "norad_id": 66403,
        "name": "STARLINK-35602",
        "group": "last-30-days",
        "lat": 47.55591381690448,
        "lon": 51.64665317315391,
        "alt_km": 413.61556248636407,
        "timestamp": "2025-12-07T22:37:41.855647+00:00",
        "meta_object_name": "STARLINK-35602",
        "meta_object_id": "2025-257Z",
        "meta_epoch": "2025-12-07T06:39:25.443648",
        "meta_mean_motion": 15.48929279,
        "meta_eccentricity": 0.00013512,
        "meta_inclination": 53.1608,
        "meta_ra_of_asc_node": 289.8875,
        "meta_arg_of_pericenter": 55.6057,
        "meta_mean_anomaly": 304.508,
        "meta_ephemeris_type": 0,
        "meta_classification_type": "U",
        "meta_norad_cat_id": 66403,
        "meta_element_set_no": 999,
        "meta_rev_at_epoch": 553,
        "meta_bstar": -0.0032004591,
        "meta_mean_motion_dot": -0.00172268,
        "meta_mean_motion_ddot": 0,
        "tle_line1": "1 66403U 25257Z   25341.27737782 -.00172268  00000+0 -32005-2 0  9997",
        "tle_line2": "2 66403  53.1608 289.8875 0001351  55.6057 304.5080 15.48929279  5538"
      },
      "geometry": {
        "type": "Point",
        "coordinates": [
          51.64665317315391,
          47.55591381690448
        ]
      }
    }
  ]
}